NUSAT-48 (HENRIETTA LE*)
1 60498U 24149AG  26068.80506098  .00012988  00000+0  45212-3 0  9999
2 60498  97.3923 150.8264 0002754 263.3026  96.7901 15.29812597 86946
STARLINK-34254          
1 64136U 25111P   26068.07927978  .00032927  00000+0  12004-2 0  9992
2 64136  43.0010  81.0062 0000276 242.1238 117.9586 15.27589243 45376
